{"type":"FeatureCollection","features":[{"type":"Feature","geometry":{"type":"Polygon","coordinates":[[[95.93750118309376,34.98333328093687],[95.93652912395025,34.97993544849753],[95.92438248449434,34.978165216059416],[95.9256756463018,34.95516513441037],[95.93395171510001,34.95279741831839],[95.93271658104729,34.94783886162294],[95.92978246294464,34.943825645242775],[95.92854733349341,34.93950483067512],[95.92145288180888,34.93132680125299],[95.92021768088169,34.9270059612171],[95.91311880827172,34.918827939769265],[95.91157149851296,34.91342794131185],[95.90833420357303,34.91250046308731],[95.9089406794877,34.896746467795424],[95.91249899312477,34.89583235213418],[95.91249899312477,34.891667583902205],[95.91887555188845,34.89110125331763],[95.92279063492964,34.88806907271821],[95.92720961408266,34.88693199404339],[95.9311246730978,34.88389977963895],[95.93664949170996,34.88248177816744],[95.93846882355048,34.87539632118785],[95.94362357184427,34.87140096120765],[95.94804254212397,34.87026384906896],[95.95195757928172,34.86723613850116],[95.96158037298349,34.86596087678812],[95.96609744685914,34.86054302116428],[95.96666820479393,34.858331316816916],[95.96908946875878,34.85797902107968],[95.9725764620642,34.85451881808164],[95.97742351175047,34.85381421718189],[95.9809105808784,34.85035398761682],[95.99166591173321,34.850001726921676],[95.99223222992812,34.84779000616255],[95.9964014239719,34.84241236990168],[95.99526435734467,34.83945597816385],[95.99109959881923,34.83407824120847],[95.99233923222067,34.821731036357896],[95.99960307889872,34.8198671376202],[96.00359844366224,34.814712401395234],[96.0041647923729,34.81250069050455],[96.00501646421168,34.80918312180326],[96.01164711158837,34.80748423078053],[96.01306515838156,34.801954875039904],[96.02037362416486,34.79375904270673],[96.01609727562523,34.788247634801834],[96.01723440900123,34.78112199820986],[96.0202665725257,34.777211363047854],[96.02139918194992,34.77278795597434],[96.0369346636462,34.756378428215974],[96.03846862003849,34.750394289251716],[96.04362330312202,34.74639897676001],[96.04583505554638,34.7458326402361],[96.04547831064917,34.7350773003365],[96.0413135067151,34.7308812846082],[96.04201806610843,34.7225739896489],[96.0461873603427,34.71837797901532],[96.04547831064917,34.714244364644976],[96.04167919172984,34.710418473725916],[96.04547831064917,34.706592607401824],[96.04618736034271,34.70174103150098],[96.04964759908322,34.69825855380927],[96.0499998451233,34.69166793122676],[96.05331740631479,34.69081624740241],[96.05416467663561,34.68749872422886],[96.05381240655736,34.680908141666286],[96.0503520931967,34.677425630414184],[96.0499998451233,34.66666580053311],[96.05217144122949,34.6660637876938],[96.05616233926159,34.66310295556233],[96.06050548170712,34.66189452794522],[96.0644919154153,34.658938174238614],[96.07421720965131,34.65755581248857],[96.07544350517324,34.64923959475364],[96.07022634394461,34.64220764105165],[96.07194754503772,34.638350490408364],[96.07825714474816,34.63659358609436],[96.08011659849318,34.629918342807045],[96.08967246382383,34.628562764260494],[96.10199297754909,34.61727228210085],[96.10815101042701,34.61555559489988],[96.11189661218035,34.61050784288646],[96.11310506567149,34.59366139848398],[96.11606145433461,34.589674977671024],[96.11666790235053,34.58749893435406],[96.11908914514288,34.58714665520884],[96.12674099078149,34.57952161369486],[96.13159245447999,34.57881260888519],[96.13507507532842,34.57535230426127],[96.13750076480888,34.57500001588549],[96.138352516827,34.57168243270176],[96.14387730090642,34.57026450778777],[96.14925501406432,34.56609968317838],[96.15745524462764,34.567406185229075],[96.15930132095971,34.57460316251644],[96.16458537809615,34.57869661957735],[96.17008791466519,34.57443370490279],[96.18554318955182,34.57556634323551],[96.19092081656477,34.57973559803873],[96.19387722142181,34.57859852279311],[96.19791717668812,34.57546824299617],[96.20195707230259,34.57859857654762],[96.21666766826665,34.57916486534512],[96.21610137841438,34.56862348887157],[96.21193211558187,34.56324586307972],[96.2131717697161,34.55089859041172],[96.21887496850609,34.54943155472226],[96.22279003629238,34.54639935383485],[96.2287697078252,34.54486546697904],[96.2327650366443,34.53971075698087],[96.23404034924273,34.53005233944267],[96.23750056284912,34.52916492622914],[96.23992631127473,34.52952167822663],[96.2441223347685,34.5336864451587],[96.24825592280942,34.5329818943136],[96.2524519426512,34.52881270205006],[96.26075924563547,34.52952164724706],[96.26495530025545,34.53368650206963],[96.27325811503724,34.53298197200346],[96.27745412203197,34.52881271402994],[96.29409104078854,34.52952163209838],[96.29757357779643,34.53298193970122],[96.2999993207491,34.533334227017974],[96.31277019118413,34.532531594947734],[96.30898887982629,34.52712266380151],[96.30767796195346,34.51871280777035],[96.30403483868974,34.5134957017609],[96.31462073822638,34.51184577703248],[96.31870977147172,34.50898749067116],[96.33227876996794,34.507574008471934],[96.33431660962073,34.500983432729875],[96.33750041069116,34.49999793700364],[96.33839670815283,34.49119127319823],[96.35297793330817,34.504376762155474],[96.3541685332606,34.508332016459626],[96.36982888081104,34.50773007837217],[96.37443071011764,34.50220967092894],[96.37566142402734,34.488399869571715],[96.38137797933881,34.486932818962295],[96.38945783949106,34.47973584689732],[96.39166509594631,34.479165069975124],[96.39131284909408,34.47257449752537],[96.38368776197824,34.464922699185166],[96.38333547869465,34.45416728769034],[96.38546691211394,34.45352524798471],[96.38953361442228,34.450644593499],[96.40348173898833,34.44921772493936],[96.40416841815694,34.42916513957173],[96.41492376925711,34.429521855364314],[96.41841076126104,34.43298210324797],[96.42083209023352,34.433334443643574],[96.42148759338447,34.44070527085145],[96.42695444840221,34.44526691755862],[96.44387671212958,34.446399598536],[96.44925438014106,34.45056883793319],[96.4535395930213,34.448923395629144],[96.45473462024178,34.43112266774228],[96.45776680154104,34.42721209563811],[96.45918476926147,34.42168278752421],[96.4658154918723,34.41998383902013],[96.46763477722561,34.412893882456025],[96.472789527377,34.408898552321524],[96.47720849816298,34.407765921302534],[96.48112358241065,34.40473369690785],[96.48710326225878,34.40319983417957],[96.491098598076,34.398045107363224],[96.49251658156389,34.392515819208285],[96.49583417364083,34.39166852619279],[96.49526787413312,34.38945688963092],[96.491098598076,34.38407913920043],[96.49233818283538,34.37173195259655],[96.49583417364083,34.3708311617895],[96.49797901487483,34.370202412471805],[96.50377136029925,34.36603763431326],[96.506313051838,34.36729515618477],[96.51035297102715,34.37020246797302],[96.51464712697052,34.37146441684203],[96.51868708889577,34.374371677462435],[96.52714593869146,34.375629190229176],[96.53293834372361,34.37979846013858],[96.54508048651745,34.37838932165345],[96.54646279448444,34.36451708691298],[96.54937015210618,34.36048160691542],[96.54999889747626,34.35833231132288],[96.54964658109084,34.355911042397686],[96.54202148997896,34.34825919756135],[96.54166482152532,34.345833447722946],[96.54166482152532,34.337499411101255],[96.54804575231827,34.338065721505885],[96.55341900007059,34.34223498831506],[96.55815458594806,34.34041564925793],[96.56193141835374,34.33554189906878],[96.56363928337538,34.32890226290967],[96.56874938870763,34.332866392381],[96.57278928777673,34.329736148460285],[96.59898650550322,34.32855892527588],[96.60776653165291,34.31887822154081],[96.60889910286312,34.31445478257321],[96.61202944596228,34.31041482021903],[96.60880106053804,34.30625006124808],[96.61193131733441,34.30221010626763],[96.61250207922869,34.2999983975597],[96.62742226331517,34.30035509305361],[96.63090921106777,34.303815356685114],[96.65242443233532,34.304519899336185],[96.65662042400444,34.30868466511449],[96.6607584531148,34.307980170557094],[96.66424101499322,34.304519870066066],[96.67742655827345,34.303815332913985],[96.68124805125471,34.30001617979962],[96.68578740436311,34.30451988859986],[96.70242429110135,34.30381539392279],[96.70590690580698,34.30035511955996],[96.71075834529167,34.29964607391537],[96.71874904619594,34.2916821534681],[96.72328842979485,34.29618586848631],[96.72742650119304,34.2954813076282],[96.73124793946668,34.29168211993149],[96.7350738501047,34.295481281298876],[96.74409014101681,34.296185844296126],[96.7475771279867,34.29964606994972],[96.75242418472853,34.30035508985391],[96.75590680159246,34.303815347101335],[96.76492305589332,34.30451993308207],[96.76911910433107,34.30868468858887],[96.79409006526465,34.3079801207266],[96.79757704656424,34.304519887591525],[96.8041676108146,34.30416763481189],[96.80451985334791,34.30658892621435],[96.80798017164221,34.31007588960584],[96.80868469994374,34.31492300278716],[96.81214491292575,34.31840997272067],[96.81250169526913,34.32083124296911],[96.81666648086986,34.320831306582235],[96.8208312878273,34.32083130901219],[96.82304302748977,34.320264952388996],[96.82695809479104,34.31723275619531],[96.84076794966354,34.316006575103174],[96.8425694330877,34.3089790056989],[96.85612505493415,34.296399910714506],[96.86164988976371,34.29498189295564],[96.86306788800705,34.28945703752778],[96.87026488163917,34.281377127143614],[96.8708312191942,34.27916548318174],[96.86986351404208,34.2753974779576],[96.86470879855831,34.27140217960921],[96.85776603644862,34.269618535899525],[96.85898334119022,34.255148744173155],[96.87278868520183,34.242235185943116],[96.87831803932374,34.240817176318316],[96.87973599008731,34.235287925372525],[96.88693301834442,34.22721248784793],[96.8881325318147,34.20931358344766],[96.89362168113804,34.20473414865266],[96.90323543119483,34.20346325167573],[96.91306782450047,34.1926276283865],[96.911930738669,34.18112317563491],[96.90046190664245,34.16876258840128],[96.90360114437014,34.16470920984697],[96.90416744300946,34.15833276000113],[96.90505476594129,34.15487689020532],[96.91470876081935,34.15359714317524],[96.91862383710802,34.1505694566038],[96.93652261788073,34.14936544611986],[96.94109768616097,34.14387632765667],[96.94223478567575,34.13945737145439],[96.9452669833463,34.1355422652114],[96.94639956724014,34.131123326866025],[96.94943179307965,34.127212628890675],[96.95096565513349,34.12122853166303],[96.95612486204185,34.11723321120998],[96.96666616009298,34.11666689365325],[96.96751785964959,34.113349349357],[96.97083543804132,34.11250207087174],[96.97826875725059,34.113162013999755],[96.97916503139491,34.1166668707284],[96.98659838780668,34.116006911092065],[96.98749911977478,34.11250211800953],[96.98827501496619,34.10490374045411],[97.00630310634575,34.103525896882765],[97.01036533249973,34.10064090832404],[97.01666609379049,34.09999877989868],[97.01998368181859,34.09914710162193],[97.02140165451587,34.09362224761357],[97.02443380181796,34.08971158531386],[97.02591871802862,34.083914805659084],[97.03528731868353,34.07556737710733],[97.0374989912482,34.07500103398272],[97.03838638818542,34.07154074572883],[97.04804474540342,34.070265477865576],[97.05612467601618,34.0630684717456],[97.058331955547,34.06250214614853],[97.06250118795714,34.06250222187206],[97.0636070583161,34.06636821734479],[97.07426432425773,34.075616377325325],[97.08132753958203,34.07438126122205],[97.08534067239987,34.071451580074694],[97.09382639016182,34.070216434433014],[97.10200434886274,34.063117505958154],[97.11586325253808,34.06176646326116],[97.1172856543005,34.052005487802255],[97.12021531593827,34.04799227409555],[97.1214505303085,34.04367138240745],[97.12438456407011,34.039658183416215],[97.1256152554291,34.035341808548246],[97.12854939002722,34.03132861865981],[97.1303240790876,34.0251126267984],[97.13534058468879,34.02145167501979],[97.13966146305117,34.0202165304104],[97.14367465569977,34.01728245500185],[97.14583282304957,34.01666707609928],[97.15220937554307,34.01723337001003],[97.15758707991559,34.021402639336856],[97.1605434110714,34.020265605039846],[97.16862333978906,34.0130685870006],[97.174148111158,34.01165060597731],[97.17585150288099,34.00501542593593],[97.18293706051875,34.00320063012298],[97.18693237321875,33.99804588086651],[97.18806949481613,33.98528836171491],[97.19109722635406,33.98137772665694],[97.192234254025,33.97695436017552],[97.19526644932301,33.97304365719079],[97.19583277578585,33.96666716336594],[97.19915032606842,33.96581549604669],[97.20092055363313,33.95891728397566],[97.21028916078544,33.9505653920264],[97.21471258903354,33.9494327950749],[97.21862325393958,33.94640058971511],[97.22083491768952,33.94583428316831],[97.23658444818312,33.946440672715745],[97.23806939655233,33.95221077231306],[97.24262655811513,33.957677594775404],[97.2563784091579,33.95889945816855],[97.26041841391687,33.96202969312795],[97.26445833100601,33.95889939709415],[97.27304206310394,33.95776685003627],[97.27708207592947,33.95463648666418],[97.28112200065847,33.95776678328162],[97.28554538057449,33.958899401195346],[97.28945603334583,33.961931615421214],[97.29804425414763,33.96306871477016],[97.30195488713905,33.966100898342965],[97.30637830947722,33.96723348639645],[97.31028892885703,33.970265708374654],[97.31581378252702,33.97168369455793],[97.3166654918642,33.97500124173389],[97.3173522052289,33.995053857758045],[97.33130026639826,33.99647625234469],[97.34045926245916,34.004315351606614],[97.34230975190901,34.010468955995876],[97.3451903690075,34.0145311457288],[97.34647454675795,34.0271370591305],[97.34935517529583,34.0311993257143],[97.35000175106573,34.033335197314415],[97.35242302376159,34.03297847690466],[97.35591006485204,34.029518215815216],[97.36075707314207,34.02881369419397],[97.36495308583868,34.02464883315903],[97.36909115250333,34.02535337948125],[97.37328718341351,34.02951820192392],[97.38575923285124,34.028813685813226],[97.38995529890023,34.02464886583314],[97.39409331457439,34.025353373344466],[97.39828486128718,34.02951819728054],[97.41909101311761,34.02881365621089],[97.4225736211171,34.02535337658109],[97.43333335851116,34.025001134870216],[97.44908737142701,34.02560755688602],[97.45084877081676,34.03248353144949],[97.45416633321997,34.03333520783646],[97.4538140327141,34.0524246082883],[97.45035377505629,34.05590713549329],[97.44964475782886,34.06421448690362],[97.45797885531512,34.07257528291032],[97.4586878760046,34.08992564032817],[97.46214814059401,34.09340819316998],[97.46285266374777,34.10242448256501],[97.46631289027708,34.105907111256585],[97.46666517228682,34.108332858369785],[97.46909090623254,34.108685074269076],[97.4746469444076,34.11421438910083],[97.4749992690919,34.125000943230944],[97.48966077796862,34.125616291643794],[97.49536392424207,34.1297855547947],[97.50215962009075,34.128550428331316],[97.50786280870815,34.12438109811091],[97.52003172576227,34.12575455116837],[97.52165034483173,34.13684874373925],[97.54583209970224,34.13749978423292],[97.54914960477791,34.138351507671246],[97.55056762712542,34.143876279455576],[97.55359983734176,34.147791415891334],[97.55416608725416,34.149998689868305],[97.56159943489698,34.15066307822263],[97.56250016768328,34.154167904795486],[97.56250016768328,34.16250196872837],[97.57916827313478,34.16250201435647],[97.58235207870048,34.163482948069934],[97.58398861153603,34.168789347718324],[97.58815334753211,34.17475560835994],[97.58684240218757,34.18545743823884],[97.57870899021512,34.19502220223033],[97.59166716027558,34.19583378949042],[97.5922825196528,34.197991959956106],[97.59521663466069,34.20200517354624],[97.59663460577607,34.21176613189786],[97.60416606104587,34.212501887634524],[97.6047323097356,34.21470913701535],[97.60776448645295,34.218624236866226],[97.60918254778889,34.22414905345346],[97.61471178191061,34.22556704895079],[97.61862243783519,34.228599271734254],[97.6243836188719,34.23007966273404],[97.62556527172447,34.25491239129487],[97.62140044825743,34.26029009548758],[97.62083414680504,34.26250177114125],[97.62325990875428,34.262854075689056],[97.63297629690634,34.272543696201076],[97.63333298605494,34.27500065691824],[97.63575876889746,34.27464835272246],[97.63995474214545,34.27047911325044],[97.64409277918534,34.27118812533003],[97.64757539280838,34.27464833786292],[97.65242240314332,34.275352885956124],[97.65590940558415,34.27881319572805],[97.6708340712243,34.279165472014604],[97.6711863166095,34.28159117652677],[97.67464659655198,34.285073724235396],[97.67535112744982,34.298259301155646],[97.6788113647239,34.30174189643263],[97.67952040943175,34.31909224961226],[97.68298060416579,34.32257479044898],[97.68368513605103,34.331591101441745],[97.69964877566143,34.34757693765881],[97.7000010001831,34.34999828160324],[97.69648728351626,34.35097928599576],[97.69522980038502,34.37717200843489],[97.69227342464285,34.38115843209273],[97.69106049513907,34.38967090120304],[97.67977009226519,34.401995845435984],[97.67856168530689,34.418837903560586],[97.67560526709752,34.422828734408114],[97.67439684917157,34.427171939419225],[97.67144044114363,34.431158401447874],[97.66992440198881,34.43659398379613],[97.6644932122015,34.438105681578065],[97.6605067991935,34.441062037880876],[97.65082159597866,34.44243987781251],[97.64939465853888,34.45054203807635],[97.65356396710192,34.45616050836776],[97.65416588262383,34.466666219893256],[97.65416588262383,34.47083548702774],[97.65359964644995,34.473042661642396],[97.6505674635563,34.47695780814099],[97.64943480575965,34.484078935157434],[97.65359964644995,34.489456670064605],[97.65473220616788,34.493875606554646],[97.67151181809301,34.511604982301854],[97.67831639581411,34.51335293274421],[97.67973439957345,34.518877805975904],[97.68286465978275,34.52291771844472],[97.67973439957345,34.526957696931774],[97.67859729458894,34.531376693168326],[97.6746019632512,34.536531409170536],[97.66862235185455,34.53806533333519],[97.65899960694942,34.546796201674226],[97.65776440412418,34.55908106521705],[97.66193371504751,34.564454258716026],[97.66250001870182,34.6166658599514],[97.66341406234005,34.620224261356434],[97.67916812213133,34.620835177757144],[97.67916812213133,34.63749881245555],[97.68137537123818,34.63806512465631],[97.69362453551892,34.649431333850615],[97.70220824229808,34.65056844724915],[97.70763050764091,34.6550854918077],[97.70902176411654,34.66561343465952],[97.71324458222942,34.667232074086954],[97.71862220950561,34.663067252878065],[97.72304563965714,34.66193471966534],[97.72709005319817,34.65879547303971],[97.73529030417984,34.666099518605165],[97.74387860215707,34.66723206022058],[97.75612324124653,34.678598375181394],[97.76164807574612,34.680016292345734],[97.76306610262104,34.68554565313863],[97.7661963425417,34.68958111754816],[97.76295906352281,34.693763737546575],[97.77443232306922,34.70612440247743],[97.77499862139977,34.71666570099829],[97.7815892115003,34.71701793023644],[97.78578519453718,34.72118723352233],[97.7982573413012,34.72047825541975],[97.8059091014853,34.71285316634104],[97.81075616092117,34.71214860810202],[97.81424321552028,34.708688324213256],[97.81666445802698,34.70833164842982],[97.81666445802699,34.70416679335927],[97.81909026398579,34.70451911999209],[97.82674203258031,34.71214864215952],[97.8315891050098,34.71285315204024],[97.83714066501629,34.71837799464246],[97.8378541246401,34.72325626748106],[97.8413143726382,34.72674324205102],[97.84201890970147,34.73992436636262],[97.84547919445313,34.7434069101915],[97.84583148275094,34.76250074237608],[97.85416555233388,34.76250078262398],[97.86075603086647,34.76214847662256],[97.86424304944968,34.758688223537824],[97.8833325144252,34.7583315139038],[97.88992303297256,34.75797921888251],[97.89374896904505,34.7541801044292],[97.89828834456556,34.758688278557436],[97.91075597836523,34.75797927079397],[97.91424294833342,34.75451902305863],[97.92499830671987,34.75416668647943],[97.92535505982148,34.75174099590879],[97.92881531641108,34.74825838474858],[97.92952429158265,34.7433756624762],[97.9350759152898,34.73785536261997],[97.93750168077652,34.73749859941626],[97.93841578995165,34.733931360898445],[97.95833459289878,34.73333383064162],[97.9708334672274,34.733333806609835],[97.97325919397286,34.73298152855039],[97.97674171969537,34.72952131455592],[97.98575808489534,34.72881228466822],[97.98924063334636,34.7253520473742],[98.00242620510865,34.72464746835122],[98.00662220718797,34.7204782290822],[98.02325911953008,34.72118721616781],[98.02708500908341,34.72498639205523],[98.03091093478365,34.7211872188415],[98.03333219219503,34.720834960463144],[98.0357579418342,34.72118721268542],[98.03924049048445,34.72464748836653],[98.04583550303474,34.724999725715776],[98.04960348336758,34.72403208235753],[98.0535988472031,34.718877397328036],[98.05501684894814,34.713352541199995],[98.0583343971524,34.71250089265239],[98.05868664945376,34.70591032243759],[98.07048097142642,34.694089251048624],[98.07083319948282,34.69166795968899],[98.07720973895758,34.69109721307677],[98.08124968080192,34.68796694851119],[98.08528968088359,34.691097159594854],[98.1174130432838,34.6922342855253],[98.12386083326177,34.68723558921189],[98.1249979632876,34.69166792433499],[98.13750122990876,34.691667966915496],[98.13871416830395,34.68693243013759],[98.1647107141941,34.68806942642383],[98.16862134952413,34.691097192439386],[98.17499786255948,34.69166792982872],[98.17716048805184,34.691048124504896],[98.18117369764397,34.68811847802319],[98.18672970888314,34.686526644484275],[98.1883037662425,34.67573559125939],[98.20215822946003,34.67438448489457],[98.20617138927916,34.671450395554466],[98.21466150464407,34.6702152075198],[98.22283952329708,34.66311636524674],[98.24166586360204,34.66250094516212],[98.26075974618861,34.662148703128416],[98.26495577389244,34.657979485076766],[98.2690893352757,34.65868845893852],[98.2732853354575,34.66285322136858],[98.27742337131103,34.66214874372102],[98.28091043679292,34.6586884774618],[98.28750097045489,34.65833171666095],[98.28685881918696,34.63953215633643],[98.2826896066947,34.633655016492135],[98.28397826853032,34.631198059057745],[98.28685881918696,34.627135879320875],[98.28814304378152,34.61452996479605],[98.29518842744577,34.60630290749985],[98.29660643845429,34.59243956592823],[98.30416461047473,34.591668135237704],[98.31249867226568,34.59166819822788],[98.32916676547838,34.59166815994923],[98.32973307349685,34.5938753952008],[98.3343125808151,34.59936901062529],[98.35221147541478,34.60056854477871],[98.35625134957304,34.60369879597429],[98.36029135944374,34.600568554721015],[98.36471030857533,34.599431422263784],[98.38112427828833,34.58390040375409],[98.40221135869339,34.58276779903626],[98.40719659365234,34.578901774077245],[98.40923443071735,34.5868389471625],[98.42304426599088,34.588065202524334],[98.42695485233571,34.59109739952497],[98.44260183343292,34.5922344644744],[98.45195703781658,34.58390039276783],[98.45637605049583,34.58276780197318],[98.46029113763497,34.57973559594279],[98.4759603916553,34.578598516012455],[98.48684504596115,34.588470962233],[98.48750056018125,34.59583292699994],[98.48536463314134,34.5964750809326],[98.48130237714733,34.59935561763578],[98.47703060044068,34.600644340750165],[98.47078338161971,34.60553594644972],[98.48268917838219,34.61869919796107],[98.48397786635894,34.62115622299387],[98.47918881460488,34.627902856865155],[98.4720809914997,34.6300476720083],[98.470190301238,34.633655049426096],[98.47497492887025,34.640406149963],[98.4825687679879,34.64268918091509],[98.48397786635894,34.65448794055362],[98.47980859254199,34.66036507804086],[98.47852441363601,34.66463688855688],[98.47564381974753,34.66869917301222],[98.47423027252145,34.68256250350463],[98.4593636392243,34.684078613107964],[98.45833361041163,34.68749868320888],[98.46185627531207,34.68840390907612],[98.47443096229145,34.70195510893813],[98.47613873081991,34.70859916828804],[98.4825866034514,34.703600524142914],[98.49901393751682,34.70480445124071],[98.50776720362457,34.71445397185183],[98.50889976571492,34.7188773665142],[98.51193199309499,34.72278806785297],[98.51306905741362,34.73137627704848],[98.51610120096375,34.73529132466924],[98.51723388810161,34.743875124034645],[98.52443084000464,34.751954971533685],[98.52570616587641,34.761582198743845],[98.53112398535323,34.76609929574843],[98.53554295060198,34.7672318805431],[98.53945804537555,34.770264045799266],[98.54166522514114,34.770834877430985],[98.54387699461358,34.77026405513756],[98.54925463024209,34.766099316290635],[98.55221103428254,34.76723189261349],[98.55758867488741,34.77140114812223],[98.57304398188901,34.770264043424234],[98.57695455881121,34.76723191544022],[98.58248386887851,34.76581390792416],[98.58418276061481,34.759183202583095],[98.58750032893384,34.758331551617864],[98.61249809550269,34.75833153169556],[98.6130688059368,34.76054326044577],[98.62443064112011,34.772787928628176],[98.6255677147528,34.77721132203046],[98.6285999100838,34.781121976727015],[98.62973251541153,34.78554542173859],[98.63693392939382,34.79362085933377],[98.63806657449211,34.806378301977624],[98.64109876295754,34.81028899270386],[98.6422358332018,34.81471243531333],[98.65058325745069,34.82408099372495],[98.65637565054476,34.82556585749243],[98.6618692620065,34.83014980651145],[98.66306875227028,34.84878439500756],[98.65446265203231,34.85099164511712],[98.65502452848708,34.8535021172992],[98.66887896270904,34.85473284925405],[98.672789588906,34.85776503914102],[98.71887884739526,34.85890210313747],[98.72278950162129,34.86193427365181],[98.75221065305654,34.86306689601582],[98.77410929930484,34.884029120776404],[98.77585279116097,34.890815895788364],[98.78137763865166,34.89223389226307],[98.78945752946149,34.89943083205122],[98.80221051149704,34.90056794321776],[98.80612118271951,34.9036001339697],[98.81054460674166,34.90473276044019],[98.81604711896522,34.909325645212625],[98.81666694342871,34.92083458038903],[98.82083175391064,34.92083451646909],[98.819984476101,34.92414764194166],[98.81445519357665,34.925565615266684],[98.8063753028694,34.93276711638235],[98.80416805078032,34.93333339548477],[98.80359734897876,34.935545124867595],[98.80056514042313,34.93945572461371],[98.7994325386641,34.942412096870775],[98.80359734897876,34.94778977811142],[98.80473438418477,34.952208754021115],[98.81286775799313,34.96133652564224],[98.80833286319901,34.962500410047305],[98.80833286319901,34.96666515977327],[98.81054460674166,34.96723595656325],[98.81306841424767,34.969617130285606],[98.80833286319903,34.97083446111394],[98.80833286319901,34.97499921909466],[98.79757752913223,34.97464699687472],[98.79409053074393,34.97118671210155],[98.76495026671502,34.970482138882836],[98.75658948220087,34.97881175909528],[98.75174243186567,34.97952080258607],[98.7440906280942,34.98714585493791],[98.73750010151456,34.9874981427944],[98.73806636677513,34.9938790660728],[98.74109856118909,34.99778966992271],[98.74251656679617,35.0033145165538],[98.75026644449947,35.00530331520002],[98.74640044099223,35.010288599703244],[98.74583411451287,35.01250028387677],[98.74548188506729,35.01492604420697],[98.7420216019896,35.01840855483149],[98.74166485288765,35.020834314110445],[98.74109856118909,35.02304163982001],[98.73275111451952,35.03241466957003],[98.72695429767012,35.03389951327741],[98.72304368380537,35.03693169335853],[98.7133852671392,35.0382070171468],[98.71193159939915,35.0438790121745],[98.70737440994445,35.0493458468779],[98.6999990074762,35.050001321178016],[98.69757772887918,35.05035357868331],[98.67952282747953,35.06838173192216],[98.67916611645678,35.07499903843252],[98.67695436048238,35.075565315610405],[98.67304377350828,35.07859755008297],[98.66862479192854,35.07973458368095],[98.664709678014,35.082766787657576],[98.6561214373601,35.083899390239495],[98.65221082355247,35.08693163321806],[98.64255243026872,35.08820687673573],[98.64166507233746,35.091667178974966],[98.63750029179569,35.09166714485396],[98.63750029179569,35.08749787894473],[98.63688048178115,35.08533967892843],[98.63395082113531,35.08132650830612],[98.63233220185603,35.07021445845679],[98.59367174671831,35.07144963916802],[98.5896585953023,35.07438365346596],[98.57916626806974,35.07499907449357],[98.56841099076509,35.075351337521006],[98.56492392204854,35.07881155500305],[98.55174286293747,35.07952057261826],[98.54825580661537,35.08298083141073],[98.51424182476325,35.08368534964727],[98.50659001377196,35.09131492455766],[98.48924404809895,35.09201944756837],[98.48159226187708,35.09964448947553],[98.4684066510632,35.10035345880046],[98.4628595643782,35.10587831637823],[98.46249834528632,35.1083352633551],[98.449731977487,35.10753265308518],[98.45351329679411,35.102123773050224],[98.45482425218127,35.09142187879497],[98.45065500458979,35.08545566250294],[98.44934403830865,35.0812105794118],[98.44508562744451,35.07571692554301],[98.41642247200834,35.07434352826629],[98.41045618922564,35.078512791643995],[98.40621111386564,35.07982383384145],[98.40212219328389,35.08267761907044],[98.39787708936115,35.0839885962237],[98.39378812300906,35.086842439753035],[98.38120898669123,35.08815335091279],[98.37712444532622,35.09101169630664],[98.3624985440197,35.09166713125634],[98.36214633644259,35.09409287274038],[98.3545212377724,35.101740301091915],[98.354164554024,35.104165992406834],[98.33425015501984,35.104763558954076],[98.33333157428368,35.10833532546234],[98.3311243360757,35.108901603652775],[98.32720924649745,35.11193379606293],[98.3061221895198,35.11306637136872],[98.29699441875053,35.121199751528714],[98.2958349943312,35.11666489265424],[98.28954321390714,35.11732041088813],[98.28545427365647,35.1201786918966],[98.28308644968017,35.12148960769717],[98.27708451060322,35.11729360545725],[98.27295534467612,35.12017869256208],[98.26871026833973,35.121489642910454],[98.26462131187058,35.124343435626585],[98.25621141783198,35.12565443091554],[98.24795765548623,35.13267749574084],[98.23537853160279,35.13398847398468],[98.23128950426067,35.13684676638005],[98.22287965926735,35.138153261059834],[98.21462137316095,35.14517639265454],[98.21037632026703,35.146487317016636],[98.20548022621746,35.14990747005383],[98.20350930015425,35.15628843776198],[98.19972801653186,35.161706235572616],[98.17990734965994,35.16325802489599],[98.17851159851985,35.18391702797296],[98.18684563735061,35.193709198772765],[98.18815664261568,35.197954296481434],[98.19101051000506,35.20204331732277],[98.19232142293544,35.21045765915284],[98.195741567219,35.21535369575002],[98.20410684571128,35.217935544895454],[98.20065553037854,35.22287623790208],[98.20000003821951,35.224998752163216],[98.19757423429515,35.225355459781994],[98.1940916971967,35.22881130453305],[98.17083306633558,35.229167988521226],[98.16840731058139,35.22952027659347],[98.16492474232241,35.23298052304125],[98.15590842250054,35.23368503489127],[98.15242586593479,35.23714533184745],[98.13750122990878,35.23750203004402],[98.13683688526618,35.24493538750543],[98.13001893024628,35.24668332777129],[98.12827987368568,35.25345672862725],[98.11862139800215,35.25473202829884],[98.11346674075136,35.258727380639506],[98.11193278720114,35.26471148527106],[98.10683600437473,35.27082044008798],[98.10221191759209,35.26723533476025],[98.09668266015463,35.265817354027014],[98.09526467695278,35.26028807991574],[98.09223246979417,35.25637744368572],[98.0908144901135,35.2508525864189],[98.08750136984273,35.25000094378592],[98.08418382001624,35.25085263714934],[98.08333207376963,35.254165738621985],[98.08001896167046,35.25501741937134],[98.07916726427985,35.258335011770576],[98.07881499576649,35.27742442894426],[98.07535477718935,35.28090694616584],[98.07499803038263,35.287502000618574],[98.07720973895758,35.28806826563301],[98.07973364567914,35.290453919336365],[98.07499803038263,35.291666735376474],[98.06840752363215,35.292019015452276],[98.06492490424941,35.29547928201169],[98.06007344619073,35.296188262086275],[98.05659089419687,35.299648589614144],[98.05000031268258,35.300000820642516],[98.04964360739916,35.297543855047174],[98.04409205128663,35.29201901516583],[98.02499815781361,35.29166678476669],[98.02409293398212,35.28812179864142],[98.01249928332582,35.28750196981249],[98.01028755490614,35.28693117745554],[98.00637694769634,35.283899038678],[98.00342058818867,35.282766383765704],[97.99804286377734,35.28693116709583],[97.97425359012905,35.28806825660069],[97.9688758820156,35.28389904408861],[97.95506603574405,35.28267275717719],[97.95331812747999,35.27585031503028],[97.95000050266914,35.274998629153956],[97.94934053741194,35.28243199949956],[97.9436239743824,35.28389897404721],[97.93554409011266,35.29110043395455],[97.92588566375066,35.29237580070064],[97.92443205934836,35.29804326580897],[97.91933977379006,35.304152212828555],[97.91471123622227,35.300567127330176],[97.9102877994563,35.2994344784297],[97.90637715057332,35.29640231509256],[97.90342075229213,35.29526528469672],[97.89804303962872,35.299434552455814],[97.88423322424258,35.30066081079548],[97.8827661818211,35.30637732562133],[97.87820454041604,35.31184420797686],[97.87083363043219,35.312499681798336],[97.86840788495188,35.312851922783615],[97.86492531218828,35.316312201068584],[97.86249960184108,35.31666448623259],[97.86158546716273,35.3130972082584],[97.84166664029685,35.31249966678679],[97.84077933419488,35.31595996621981],[97.83112086500097,35.3172352443668],[97.82304541417015,35.324432255785474],[97.81989730781781,35.32556927446864],[97.81054210443475,35.31723528941511],[97.79925170731968,35.31609819716769],[97.79387846453436,35.320267478287434],[97.78112097006637,35.3214000588872],[97.76887630565746,35.33276627686626],[97.76445729401523,35.33389891769123],[97.75930258602712,35.33789425936122],[97.75776425573184,35.343878383312365],[97.75473204834796,35.34778903441426],[97.75331402316193,35.35331383903225],[97.75000090456851,35.35416550622132],[97.74778917825506,35.353599225836426],[97.74387860215707,35.350567036127686],[97.73945510588288,35.349434446502556],[97.73554449506871,35.346402263294614],[97.72695630192,35.345265117265825],[97.72304563965714,35.342232950110265],[97.71445739790856,35.34110033633704],[97.71054229405607,35.33806813326216],[97.68675304211396,35.33693112810518],[97.68137537123818,35.3411003268458],[97.6769563879856,35.342232944487385],[97.66471171019836,35.35359919579254],[97.65907097121085,35.35504841455524],[97.65776440412418,35.36324868923045],[97.66193371504751,35.36862192117322],[97.66250001870182,35.37499840613418],[97.66250001870182,35.38750180204835],[97.63749777711209,35.38750173898495],[97.62916819527612,35.38750172420651],[97.6288114446649,35.385076035763426],[97.62535119909583,35.38158903556279],[97.62464667557192,35.3767419331617],[97.62118638841542,35.37325938483596],[97.62083414680504,35.370833678120704],[97.62048190697453,35.3684078960364],[97.6121478213414,35.36004705666253],[97.6128523840007,35.33924092517802],[97.61631258835946,35.33575834984404],[97.61702157832318,35.318407971527314],[97.62048190697455,35.3149254353752],[97.62118638841542,35.30174437470005],[97.62498553113527,35.297918457040716],[97.62118638841542,35.29409253208602],[97.62048190697455,35.264243320261926],[97.61702157832318,35.26075628008894],[97.61666488985779,35.25833495517486],[97.61007430069965,35.25797826638847],[97.60659173903366,35.25451796434641],[97.58995485221907,35.253813493743564],[97.58575882954027,35.25797822284513],[97.56250016768328,35.25833499284582],[97.56162622109099,35.266918754122045],[97.5563020070281,35.263141936170385],[97.55416608725416,35.26249977020278],[97.52674267345161,35.26285206175044],[97.52325561613218,35.266312350465476],[97.51666505345491,35.26666457500897],[97.51575095439824,35.2702274263941],[97.48424738407537,35.27144028771928],[97.48276697130781,35.277210395163685],[97.47973481335633,35.281120973499746],[97.47916851264229,35.283332672344855],[97.47257349197028,35.28298044873316],[97.46909090623254,35.27952021186179],[97.46495290215736,35.27881114264532],[97.46075686478702,35.2829804573931],[97.45833109462465,35.28333266517795],[97.45748389073054,35.2866502952341],[97.45195457963466,35.288068293901546],[97.44804400708722,35.29110044266234],[97.43112169852834,35.292233098148984],[97.42721107536923,35.29526527694256],[97.4061239790937,35.296402326258054],[97.4022088444071,35.29943452237899],[97.3950876929319,35.300567114458325],[97.38971004093021,35.296402288695774],[97.38529101262878,35.29526524822358],[97.38137591673637,35.2922330524428],[97.37425479285551,35.29110049297204],[97.36887713257796,35.2952652853494],[97.36335225438721,35.29668322869683],[97.36250061979075,35.30000081725421],[97.35174073655367,35.29964857546394],[97.34408892279802,35.292019063882655],[97.3274520433381,35.2913145253596],[97.31492641474817,35.303813365367546],[97.31250071095216,35.30416563878853],[97.30833140821896,35.30416564292636],[97.30797911815996,35.30659138964726],[97.30451891486581,35.31007395590019],[97.3038143761783,35.31421199831871],[97.30797911815995,35.31840795766569],[97.30833140821896,35.329167803256915],[97.30756447749293,35.33242291191],[97.30322572876298,35.33386325693393],[97.29807991439849,35.32969394907373],[97.28749853780332,35.32916781306767],[97.28714619132063,35.322546028250855],[97.28159016274171,35.31702122670624],[97.27674312117358,35.31631225573027],[97.2725471221408,35.31214742192002],[97.2600750156401,35.312851953574615],[97.25624910731612,35.3166510727493],[97.25171423433973,35.31214743800049],[97.24757616106916,35.3128519288297],[97.24408917420023,35.31631225148857],[97.23924210676523,35.317021220450805],[97.23575958242053,35.3204815018879],[97.23090801266939,35.3211859863779],[97.22325626524783,35.328815545257186],[97.21840921520545,35.329520080497026],[97.21492661601295,35.332980313625875],[97.21250087968497,35.33333256814394],[97.20833165692952,35.33333263599142],[97.19757627223615,35.332980350156724],[97.19408924234739,35.32952005229891],[97.17916461310244,35.329167820315256],[97.1769573619287,35.329734124413854],[97.17304229842925,35.33276629978094],[97.16751745378589,35.33418432383411],[97.16666581727915,35.337501827066724],[97.15091179590638,35.338108336386036],[97.15000210814662,35.34166662789949],[97.12499990691464,35.341666637701536],[97.11445418642687,35.34223295231882],[97.11054351860903,35.34526518392583],[97.10612458222494,35.34640219180472],[97.1022094758347,35.34943439855895],[97.0966846530979,35.35085243662937],[97.09526663193932,35.35637725233382],[97.07140152483161,35.38112083137417],[97.07083526690722,35.387501747219574],[97.06424022354747,35.38785406176402],[97.06075768429315,35.39131427294039],[97.05416708776262,35.391666539856416],[97.05360081262332,35.39387828508553],[97.0505686436676,35.3977888767076],[97.04943156474462,35.40221232394734],[97.04109746474087,35.411563038979054],[97.04231037225996,35.42826237511598],[97.04583304925427,35.42916760588387],[97.04548082236312,35.43158886766158],[97.03995595394608,35.43714050635018],[97.03507772223762,35.43785392538466],[97.03159072528514,35.44131423026675],[97.02674362207172,35.44201875314755],[97.01492256506172,35.45381302730186],[97.01007553422458,35.454522015604304],[97.0045195088404,35.46004683838437],[97.00416725566409,35.4666686375112],[97.00174146627819,35.46702089854731],[96.99408964161225,35.474645994392105],[96.98162204069554,35.47535499778],[96.97742601657814,35.471185717264056],[96.96911868797294,35.47048117028989],[96.9649226401399,35.47464599197193],[96.9566198374693,35.47535498027473],[96.95242384857183,35.471185745855045],[96.93995167751712,35.470481163011954],[96.9357556870011,35.47464594907175],[96.93333438039757,35.47499823993568],[96.93112267453799,35.47443193121058],[96.92721201239814,35.471399744547476],[96.92278859613684,35.47026710056473],[96.9050636899919,35.4534875207648],[96.90360114437014,35.44778883438966],[96.8963996640264,35.439708886359675],[96.89526704220556,35.4352899350145],[96.89074550921463,35.429872104859484],[96.88112278974714,35.42860129810398],[96.8772121638233,35.425569123478226],[96.87144207715201,35.424088664369705],[96.87083121919419,35.40833471433221],[96.86840985570308,35.40797792993516],[96.86492284408105,35.40452217353666],[96.86078483677497,35.40381316941631],[96.85659325978212,35.407977949666886],[96.84757695964761,35.40868699517651],[96.84408991565591,35.41214719175294],[96.83749939655371,35.41249951084819],[96.83507362646972,35.4121472224898],[96.82952650943966,35.40662236073781],[96.82881308710932,35.40174416170654],[96.82118803604804,35.39409229582904],[96.8208312878273,35.39166658700766],[96.8144547944374,35.39110028619419],[96.8093000443809,35.387104876658846],[96.80744503607863,35.379876725574086],[96.79779111679677,35.378601404176095],[96.78841805192202,35.37024949612837],[96.78693319415824,35.364457100097866],[96.77973176060576,35.35637720283723],[96.77859912184982,35.35195830151224],[96.77140212700311,35.343878373244586],[96.77026505841766,35.33945498287385],[96.76723289137527,35.335544320577576],[96.76666655617738,35.333332605591465],[96.76007604331416,35.33298035311932],[96.75625012346552,35.32918117122993],[96.75242418472854,35.332980314592724],[96.74757712798669,35.33368488088322],[96.73992535938238,35.34131440022138],[96.73749955921261,35.34166666027816],[96.73693332090315,35.33945496088994],[96.73390108242151,35.33554435683153],[96.73241624960687,35.32976083503111],[96.70833257990765,35.32916781338017],[96.70776635257207,35.32695612506772],[96.7005693240642,35.31887617955478],[96.6992895356806,35.309222286257445],[96.69237351978495,35.30744752448781],[96.6909643908402,35.29675462221448],[96.6855421271787,35.29223307860208],[96.67974974503896,35.29074818048774],[96.67140232850039,35.28137518472969],[96.67083161293885,35.27916789570578],[96.6633982529325,35.27850349609512],[96.66193119468514,35.272791362438454],[96.65889905971818,35.26887625968614],[96.65776641970658,35.26445733270569],[96.65056943950506,35.256377436050194],[96.64943237972075,35.25195401570646],[96.64640018293356,35.24804338650098],[96.64526751892764,35.23945512057122],[96.64223535599633,35.23554455585325],[96.64109828090935,35.23112111621386],[96.6380660705829,35.22721050022403],[96.63693347229967,35.22279146904178],[96.6339012959867,35.218876373881095],[96.63333499038983,35.21666466924043],[96.6217413388125,35.21728896453436],[96.62083164211408,35.220833918033655],[96.62047942341565,35.223259693597726],[96.61495902976895,35.228806818094306],[96.61250207922869,35.22916799596518],[96.60416797830098,35.22916796948444],[96.59757747183792,35.229520235339464],[96.59409046720198,35.2329805134216],[96.58333511954827,35.2333327904392],[96.56862453058527,35.23389911900782],[96.5634698059999,35.23789448238867],[96.56193141835374,35.24387859771982],[96.55735638031314,35.249367742324665],[96.53945752713135,35.250567214719645],[96.53554242014103,35.25359943204797],[96.53112344943715,35.254732054002424],[96.52720836771549,35.25776423193815],[96.51445540139412,35.25890130037636],[96.51054476557213,35.26193346048802],[96.5061212700968,35.26306612001613],[96.50221066022677,35.26609824067468],[96.49779173294365,35.26723533110863],[96.48971180174134,35.27443235755385],[96.48675544342778,35.275569386174325],[96.48123948437532,35.27129315652873],[96.46887886257382,35.28276635960258],[96.46334958313963,35.284184364167096],[96.46165067797207,35.290815053496544],[96.45833309044855,35.29166673150829],[96.45776680154104,35.29387845570191],[96.45473462024178,35.29778908422406],[96.45359755932726,35.30221254763468],[96.45056533447558,35.306123148758594],[96.44929006804477,35.31577709707156],[96.445834288228,35.31666451431364],[96.43924370447898,35.31702123459625],[96.43575669633441,35.320481508744024],[96.4309096513432,35.32118598445163],[96.42742261691217,35.32464631412646],[96.41841076126104,35.325355314567545],[96.41075898633179,35.33298032575736],[96.38507458194664,35.33368489577618],[96.3815919573149,35.33714513662986],[96.37745390701511,35.33785413831898],[96.37325791267057,35.33368488636505],[96.36424164891277,35.33298033524457],[96.3607590451618,35.32952004190235],[96.35590755769874,35.32881556858005],[96.35242501171814,35.32535529817841],[96.3434087450606,35.3246463134444],[96.3399261645674,35.32118601390424],[96.32328926167524,35.320481497533876],[96.31909324869686,35.32464627215432],[96.31495519397991,35.325355283639645],[96.31075917370087,35.32118604888225],[96.30416858184104,35.32083374870736],[96.28924400177524,35.32118597816976],[96.28159219939533,35.32881555037943],[96.27916644403714,35.329167767642836],[96.26424186181028,35.32881557549749],[96.25658997582586,35.3211859977477],[96.2441223347685,35.32048144516787],[96.23992631127474,35.32464626677231],[96.22916656395178,35.324998518983826],[96.22674075074903,35.325355287638295],[96.22291485664083,35.32914993300669],[96.21875007531101,35.32501636440028],[96.21492418919567,35.32881555898488],[96.20245205743524,35.32952007184042],[96.19409128432751,35.32118604993037],[96.19166547041971,35.320833731920594],[96.18750068934162,35.32083374771154],[96.18714846270267,35.305909110594605],[96.18368815132058,35.30242661520625],[96.18333141336626,35.291666783258236],[96.18244407004248,35.288206487949566],[96.17279015934223,35.2869312362209],[96.16887502255473,35.28389903922721],[96.16320751448144,35.2824453490609],[96.16193220685906,35.27279141810541],[96.15890005863477,35.268876319265296],[96.15741511138923,35.263088347003794],[96.12916675560744,35.26249982107531],[96.11757750475181,35.2618755364405],[96.11666790235053,35.25833499899379],[96.11702013010982,35.24341038077053],[96.12048041442925,35.23992335668617],[96.12118944423591,35.226711052667675],[96.12674099078149,35.2211861871072],[96.12916675560744,35.220833951142644],[96.1316236740882,35.220477249761124],[96.13785303118753,35.214216677794205],[96.13714850044911,35.210074142266805],[96.12951897420893,35.20242230084356],[96.12881445814956,35.18090711924164],[96.12535418928688,35.17742457336066],[96.12500191369986,35.16666475239433],[96.1102913609237,35.166098456672735],[96.10513663299481,35.16210313736731],[96.10325936155388,35.15479017006439],[96.09166570994758,35.15416590164119],[96.09075156160316,35.15773763735076],[96.04674917843636,35.15892823290001],[96.04526428086548,35.16471168792887],[96.04148746525826,35.169585464426014],[96.03675183509294,35.1714003110983],[96.0313786648473,35.16723556850516],[96.02584933242936,35.16581753390561],[96.02443139145306,35.16028828636082],[96.0213991819499,35.15637760504186],[96.02026657252568,35.147789414104956],[96.01151335661787,35.13813547093259],[95.99489427055492,35.136931515647],[95.98554358910863,35.14526556553296],[95.98333184874598,35.14583183568053],[95.97984480182137,35.14478400768619],[95.97848037378016,35.104946353017446],[95.96352894136007,35.10342133796377],[95.96153577094753,35.096799589572285],[95.95488720876345,35.09479749125973],[95.95352277796754,35.077032408532034],[95.94647740452137,35.06880088140703],[95.94518871625432,35.06186702176954],[95.95352277796754,35.052132754148076],[95.95481140176557,35.04968027537884],[95.95064216305836,35.04380316075554],[95.94935798248561,35.03953135305357],[95.94647740452137,35.03546909799496],[95.94518871625432,35.03301211050327],[95.9499777726085,35.026261089632044],[95.95630078472212,35.0243570415181],[95.96252565351179,35.01948323677405],[95.95481140176557,35.0104669200246],[95.95313480104473,35.004910875860304],[95.94583523406747,35.004166187013176],[95.93827258526555,35.00339477425886],[95.93750118309376,34.995832128284725],[95.93750118309376,34.98333328093687]]]},"id":"0","properties":{"area_km2":23154.652813157307,"boundary_type":"upstream_hydrobasins_union","crs":"EPSG:4326","generated_date":"2026-07-15","hybas_level":6,"name_cn":"扎陵湖—鄂陵湖候选研究区","name_en":"Zhaling-Eling Candidate Study Area","outlet_hybas_id":4060628060,"roi_id":"ZE_WATERSHED_HYBAS6_V0","source":"HydroBASINS","source_asset":"WWF/HydroSHEDS/v1/Basins/hybas_6","source_ids":"4060614190,4060614330,4060620840,4060621070,4060628060","source_version":"v1c"}}]}